OBJECT_NAME,OBJECT_ID,EPOCH,MEAN_MOTION,ECCENTRICITY,INCLINATION,RA_OF_ASC_NODE,ARG_OF_PERICENTER,MEAN_ANOMALY,EPHEMERIS_TYPE,CLASSIFICATION_TYPE,NORAD_CAT_ID,ELEMENT_SET_NO,REV_AT_EPOCH,BSTAR,MEAN_MOTION_DOT,MEAN_MOTION_DDOT
ONEWEB-0720,2023-029AR,2026-06-26T14:24:54.271296,13.19725615,.0001774,87.9176,303.1019,108.7060,251.4266,0,U,55835,999,16008,.35701E-3,.156E-5,0
ONEWEB-0537,2023-043A,2026-06-26T16:39:40.430016,13.16594594,.000229,87.9088,226.8839,94.8184,265.3208,0,U,56046,999,16021,-.22677E-3,-.74E-6,0
ONEWEB-0538,2023-043B,2026-06-26T16:30:32.994432,13.16595435,.0002222,87.9091,226.8875,101.7671,258.3709,0,U,56047,999,16022,-.3693E-5,.11E-6,0
ONEWEB-0546,2023-043C,2026-06-26T16:12:18.709056,13.16594937,.0002694,87.9091,226.8899,88.7200,271.4239,0,U,56048,999,16021,-.10072E-3,-.26E-6,0
ONEWEB-0547,2023-043D,2026-06-26T17:02:39.393024,13.21825884,.0002099,87.9251,242.0797,103.5950,256.5417,0,U,56049,999,15948,-.27418E-3,-.1E-5,0
ONEWEB-0548,2023-043E,2026-06-26T09:29:53.803104,13.16593454,.0001831,87.9089,226.9415,84.7102,275.4238,0,U,56050,999,16017,.1658E-4,.19E-6,0
ONEWEB-0549,2023-043F,2026-06-26T16:54:11.080224,13.21825926,.0002306,87.9247,242.0868,106.3431,253.7956,0,U,56051,999,15948,-.16712E-3,-.56E-6,0
ONEWEB-0550,2023-043G,2026-06-26T16:34:49.268928,13.21825753,.0001876,87.9251,242.0873,94.5532,265.5816,0,U,56052,999,15948,-.25078E-3,-.91E-6,0
ONEWEB-0551,2023-043H,2026-06-26T17:43:21.607392,13.15549882,.0002121,87.8996,257.3235,109.5086,250.6273,0,U,56053,999,15765,.31092E-3,.13E-5,0
ONEWEB-0552,2023-043J,2026-06-26T16:27:30.897792,13.21825053,.0001889,87.9246,242.0935,102.3872,257.7473,0,U,56054,999,15948,.11528E-3,.61E-6,0
ONEWEB-0553,2023-043K,2026-06-26T16:21:25.735968,13.16595098,.0002341,87.9090,226.8890,88.6697,271.4702,0,U,56055,999,16022,-.16942E-4,.6E-7,0
ONEWEB-0554,2023-043L,2026-06-25T16:20:32.276832,13.16595861,.00017739,87.9090,227.0966,82.9236,277.2097,0,U,56056,999,16007,.73854745E-4,.41E-6,0
ONEWEB-0555,2023-043M,2026-06-26T13:19:01.237152,13.16592659,.0002571,87.9092,226.9116,88.2448,271.8978,0,U,56057,999,16019,-.19311E-4,.5E-7,0
ONEWEB-0557,2023-043N,2026-06-26T13:39:33.097248,13.16594154,.0002299,87.9089,226.9183,62.6396,297.4969,0,U,56058,999,16019,.36771E-3,.153E-5,0
ONEWEB-0558,2023-043P,2026-06-26T16:17:49.712640,13.21824436,.0002302,87.9248,242.0900,104.0130,256.1260,0,U,56059,999,15949,.10407E-3,.56E-6,0
ONEWEB-0559,2023-043Q,2026-06-26T10:33:51.539040,13.21825965,.0002043,87.9250,242.1328,104.8441,255.2919,0,U,56060,999,15947,.22278E-3,.105E-5,0
ONEWEB-0566,2023-043R,2026-06-26T17:40:11.523072,13.21826761,.000205,87.9248,242.0719,107.7919,252.3438,0,U,56061,999,15949,.60866E-4,.38E-6,0
ONEWEB-0568,2023-043S,2026-06-26T14:04:40.048032,13.16580346,.0001764,87.9082,226.9047,89.0076,271.1257,0,U,56062,999,16021,-.39988E-2,-.1515E-4,0
ONEWEB-0574,2023-043T,2026-06-26T17:30:31.240800,13.21824166,.0002013,87.9260,242.0772,92.7868,267.3496,0,U,56063,999,15953,-.14968E-3,-.49E-6,0
ONEWEB-0575,2023-043U,2026-06-26T13:55:31.613664,13.16594406,.0002096,87.9089,226.9023,84.0057,276.1313,0,U,56064,999,16020,.27125E-3,.117E-5,0
ONEWEB-0576,2023-043V,2026-06-26T13:28:09.502176,13.16594040,.0002085,87.9092,226.9141,89.8882,270.2488,0,U,56065,999,16019,-.55431E-4,-.8E-7,0
ONEWEB-0577,2023-043W,2026-06-26T13:37:17.487264,13.16594019,.0001892,87.9090,226.9105,73.8731,286.2608,0,U,56066,999,16022,.15364E-3,.72E-6,0
ONEWEB-0578,2023-043X,2026-06-26T17:11:08.758176,13.21825015,.0002312,87.9250,242.0770,92.5141,267.6258,0,U,56067,999,15949,-.27829E-4,.2E-7,0
ONEWEB-0579,2023-043Y,2026-06-26T16:59:01.856832,13.21826390,.0001865,87.9259,242.0760,103.9533,256.1809,0,U,56068,999,15950,-.21654E-3,-.76E-6,0
ONEWEB-0581,2023-043Z,2026-06-26T13:46:23.952576,13.16592864,.0001812,87.9089,226.9204,80.5248,279.6088,0,U,56069,999,16019,.35756E-3,.15E-5,0
ONEWEB-0609,2023-043AA,2026-06-26T16:31:29.609760,13.15549994,.0002076,87.8998,257.3191,100.2939,259.8425,0,U,56070,999,15768,-.1741E-4,.6E-7,0
ONEWEB-0613,2023-043AB,2026-06-26T16:28:04.235232,13.15546600,.0001939,87.9000,257.3315,107.8208,252.3134,0,U,56071,999,15768,.3049E-3,.128E-5,0
ONEWEB-0630,2023-043AC,2026-06-26T16:21:14.643072,13.15547003,.0001907,87.9006,257.3048,105.6361,254.4980,0,U,56072,999,15767,.13164E-3,.62E-6,0
ONEWEB-0632,2023-043AD,2026-06-26T16:14:23.887104,13.15548667,.000191,87.9001,257.3231,96.4654,263.6694,0,U,56073,999,15767,.28515E-3,.12E-5,0
ONEWEB-0633,2023-043AE,2026-06-26T12:26:13.485696,13.15547692,.0002068,87.9007,257.3307,112.3463,247.7886,0,U,56074,999,15763,.56132E-3,.224E-5,0
ONEWEB-0634,2023-043AF,2026-06-26T17:34:15.473856,13.15548883,.0002363,87.8996,257.3275,98.8720,261.2678,0,U,56075,999,15765,-.34565E-4,0,0
