ONEWEB-0720             
1 55835U 23029AR  26177.60062814  .00000156  00000+0  35701-3 0  9992
2 55835  87.9176 303.1019 0001774 108.7060 251.4266 13.19725615160085
ONEWEB-0537             
1 56046U 23043A   26177.69421794 -.00000074  00000+0 -22677-3 0  9997
2 56046  87.9088 226.8839 0002290  94.8184 265.3208 13.16594594160211
ONEWEB-0538             
1 56047U 23043B   26177.68788188  .00000011  00000+0 -36930-5 0  9999
2 56047  87.9091 226.8875 0002222 101.7671 258.3709 13.16595435160224
ONEWEB-0546             
1 56048U 23043C   26177.67521654 -.00000026  00000+0 -10072-3 0  9996
2 56048  87.9091 226.8899 0002694  88.7200 271.4239 13.16594937160215
ONEWEB-0547             
1 56049U 23043D   26177.71017816 -.00000100  00000+0 -27418-3 0  9997
2 56049  87.9251 242.0797 0002099 103.5950 256.5417 13.21825884159481
ONEWEB-0548             
1 56050U 23043E   26177.39576161  .00000019  00000+0  16580-4 0  9992
2 56050  87.9089 226.9415 0001831  84.7102 275.4238 13.16593454160170
ONEWEB-0549             
1 56051U 23043F   26177.70429491 -.00000056  00000+0 -16712-3 0  9990
2 56051  87.9247 242.0868 0002306 106.3431 253.7956 13.21825926159488
ONEWEB-0550             
1 56052U 23043G   26177.69084802 -.00000091  00000+0 -25078-3 0  9996
2 56052  87.9251 242.0873 0001876  94.5532 265.5816 13.21825753159485
ONEWEB-0551             
1 56053U 23043H   26177.73844453  .00000130  00000+0  31092-3 0  9993
2 56053  87.8996 257.3235 0002121 109.5086 250.6273 13.15549882157655
ONEWEB-0552             
1 56054U 23043J   26177.68577428  .00000061  00000+0  11528-3 0  9998
2 56054  87.9246 242.0935 0001889 102.3872 257.7473 13.21825053159484
ONEWEB-0553             
1 56055U 23043K   26177.68154787  .00000006  00000+0 -16942-4 0  9994
2 56055  87.9090 226.8890 0002341  88.6697 271.4702 13.16595098160226
ONEWEB-0554             
1 56056U 23043L   26176.68092913  .00000041  00000+0  73855-4 0  9990
2 56056  87.9090 227.0966 0001773  82.9236 277.2097 13.16595861160070
ONEWEB-0555             
1 56057U 23043M   26177.55487543  .00000005  00000+0 -19311-4 0  9993
2 56057  87.9092 226.9116 0002571  88.2448 271.8978 13.16592659160192
ONEWEB-0557             
1 56058U 23043N   26177.56913307  .00000153  00000+0  36771-3 0  9998
2 56058  87.9089 226.9183 0002299  62.6396 297.4969 13.16594154160194
ONEWEB-0558             
1 56059U 23043P   26177.67904760  .00000056  00000+0  10407-3 0  9994
2 56059  87.9248 242.0900 0002302 104.0130 256.1260 13.21824436159492
ONEWEB-0559             
1 56060U 23043Q   26177.44017985  .00000105  00000+0  22278-3 0  9999
2 56060  87.9250 242.1328 0002043 104.8441 255.2919 13.21825965159474
ONEWEB-0566             
1 56061U 23043R   26177.73624448  .00000038  00000+0  60866-4 0  9991
2 56061  87.9248 242.0719 0002050 107.7919 252.3438 13.21826761159496
ONEWEB-0568             
1 56062U 23043S   26177.58657463 -.00001515  00000+0 -39988-2 0  9990
2 56062  87.9082 226.9047 0001764  89.0076 271.1257 13.16580346160215
ONEWEB-0574             
1 56063U 23043T   26177.72952825 -.00000049  00000+0 -14968-3 0  9990
2 56063  87.9260 242.0772 0002013  92.7868 267.3496 13.21824166159538
ONEWEB-0575             
1 56064U 23043U   26177.58022701  .00000117  00000+0  27125-3 0  9999
2 56064  87.9089 226.9023 0002096  84.0057 276.1313 13.16594406160200
ONEWEB-0576             
1 56065U 23043V   26177.56122109 -.00000008  00000+0 -55431-4 0  9994
2 56065  87.9092 226.9141 0002085  89.8882 270.2488 13.16594040160193
ONEWEB-0577             
1 56066U 23043W   26177.56756351  .00000072  00000+0  15364-3 0  9996
2 56066  87.9090 226.9105 0001892  73.8731 286.2608 13.16594019160224
ONEWEB-0578             
1 56067U 23043X   26177.71607359  .00000002  00000+0 -27829-4 0  9991
2 56067  87.9250 242.0770 0002312  92.5141 267.6258 13.21825015159491
ONEWEB-0579             
1 56068U 23043Y   26177.70766038 -.00000076  00000+0 -21654-3 0  9992
2 56068  87.9259 242.0760 0001865 103.9533 256.1809 13.21826390159508
ONEWEB-0581             
1 56069U 23043Z   26177.57388834  .00000150  00000+0  35756-3 0  9991
2 56069  87.9089 226.9204 0001812  80.5248 279.6088 13.16592864160195
ONEWEB-0609             
1 56070U 23043AA  26177.68853715  .00000006  00000+0 -17410-4 0  9999
2 56070  87.8998 257.3191 0002076 100.2939 259.8425 13.15549994157688
ONEWEB-0613             
1 56071U 23043AB  26177.68616013  .00000128  00000+0  30490-3 0  9994
2 56071  87.9000 257.3315 0001939 107.8208 252.3134 13.15546600157687
ONEWEB-0630             
1 56072U 23043AC  26177.68141948  .00000062  00000+0  13164-3 0  9991
2 56072  87.9006 257.3048 0001907 105.6361 254.4980 13.15547003157677
ONEWEB-0632             
1 56073U 23043AD  26177.67666536  .00000120  00000+0  28515-3 0  9997
2 56073  87.9001 257.3231 0001910  96.4654 263.6694 13.15548667157674
ONEWEB-0633             
1 56074U 23043AE  26177.51821164  .00000224  00000+0  56132-3 0  9992
2 56074  87.9007 257.3307 0002068 112.3463 247.7886 13.15547692157635
ONEWEB-0634             
1 56075U 23043AF  26177.73212354  .00000000  00000+0 -34565-4 0  9992
2 56075  87.8996 257.3275 0002363  98.8720 261.2678 13.15548883157653
